{
  "type": "FeatureCollection",
  "features": [
    {
      "type": "Feature",
      "properties": {
        "norad_id": 30066,
        "name": "FENGYUN 1C DEB",
        "group": "fengyun-1c-debris",
        "lat": 33.79236423109114,
        "lon": 177.13041265747404,
        "alt_km": 802.1338777939645,
        "timestamp": "2025-12-27T05:29:39.476489+00:00",
        "meta_object_name": "FENGYUN 1C DEB",
        "meta_object_id": "1999-025PT",
        "meta_epoch": "2025-12-27T00:03:31.097664",
        "meta_mean_motion": 14.19119162,
        "meta_eccentricity": 0.01169713,
        "meta_inclination": 98.6354,
        "meta_ra_of_asc_node": 351.0725,
        "meta_arg_of_pericenter": 220.4247,
        "meta_mean_anomaly": 210.111,
        "meta_ephemeris_type": 0,
        "meta_classification_type": "U",
        "meta_norad_cat_id": 30066,
        "meta_element_set_no": 999,
        "meta_rev_at_epoch": 98039,
        "meta_bstar": 0.00015651557,
        "meta_mean_motion_dot": 3.07e-06,
        "meta_mean_motion_ddot": 0,
        "tle_line1": "1 30066U 99025PT  25361.00244326  .00000307  00000+0  15652-3 0  9999",
        "tle_line2": "2 30066  98.6354 351.0725 0116971 220.4247 210.1110 14.19119162980391"
      },
      "geometry": {
        "type": "Point",
        "coordinates": [
          177.13041265747404,
          33.79236423109114
        ]
      }
    },
    {
      "type": "Feature",
      "properties": {
        "norad_id": 30067,
        "name": "FENGYUN 1C DEB",
        "group": "fengyun-1c-debris",
        "lat": -81.22149809416798,
        "lon": -19.88478117675898,
        "alt_km": 707.0427941327953,
        "timestamp": "2025-12-27T05:29:39.476500+00:00",
        "meta_object_name": "FENGYUN 1C DEB",
        "meta_object_id": "1999-025PU",
        "meta_epoch": "2025-12-26T15:00:41.921280",
        "meta_mean_motion": 14.43731583,
        "meta_eccentricity": 0.0151123,
        "meta_inclination": 98.7655,
        "meta_ra_of_asc_node": 247.1259,
        "meta_arg_of_pericenter": 336.6575,
        "meta_mean_anomaly": 39.9876,
        "meta_ephemeris_type": 0,
        "meta_classification_type": "U",
        "meta_norad_cat_id": 30067,
        "meta_element_set_no": 999,
        "meta_rev_at_epoch": 99399,
        "meta_bstar": 0.00047286,
        "meta_mean_motion_dot": 1.792e-05,
        "meta_mean_motion_ddot": 0,
        "tle_line1": "1 30067U 99025PU  25360.62548520  .00001792  00000+0  47286-3 0  9997",
        "tle_line2": "2 30067  98.7655 247.1259 0151123 336.6575  39.9876 14.43731583993996"
      },
      "geometry": {
        "type": "Point",
        "coordinates": [
          -19.88478117675898,
          -81.22149809416798
        ]
      }
    },
    {
      "type": "Feature",
      "properties": {
        "norad_id": 30068,
        "name": "FENGYUN 1C DEB",
        "group": "fengyun-1c-debris",
        "lat": -57.33289213220806,
        "lon": 2.5547137670960263,
        "alt_km": 723.1564778399752,
        "timestamp": "2025-12-27T05:29:39.476511+00:00",
        "meta_object_name": "FENGYUN 1C DEB",
        "meta_object_id": "1999-025PV",
        "meta_epoch": "2025-12-26T22:57:32.434560",
        "meta_mean_motion": 14.1206032,
        "meta_eccentricity": 0.01893261,
        "meta_inclination": 98.7377,
        "meta_ra_of_asc_node": 348.411,
        "meta_arg_of_pericenter": 308.3276,
        "meta_mean_anomaly": 50.1007,
        "meta_ephemeris_type": 0,
        "meta_classification_type": "U",
        "meta_norad_cat_id": 30068,
        "meta_element_set_no": 999,
        "meta_rev_at_epoch": 97544,
        "meta_bstar": 0.00023474105,
        "meta_mean_motion_dot": 4.65e-06,
        "meta_mean_motion_ddot": 0,
        "tle_line1": "1 30068U 99025PV  25360.95662540  .00000465  00000+0  23474-3 0  9992",
        "tle_line2": "2 30068  98.7377 348.4110 0189326 308.3276  50.1007 14.12060320975440"
      },
      "geometry": {
        "type": "Point",
        "coordinates": [
          2.5547137670960263,
          -57.33289213220806
        ]
      }
    },
    {
      "type": "Feature",
      "properties": {
        "norad_id": 30069,
        "name": "FENGYUN 1C DEB",
        "group": "fengyun-1c-debris",
        "lat": 28.3726312421698,
        "lon": -22.15051879803935,
        "alt_km": 839.8383198280917,
        "timestamp": "2025-12-27T05:29:39.476521+00:00",
        "meta_object_name": "FENGYUN 1C DEB",
        "meta_object_id": "1999-025PW",
        "meta_epoch": "2025-12-26T22:48:11.681280",
        "meta_mean_motion": 14.05238678,
        "meta_eccentricity": 0.00494181,
        "meta_inclination": 98.8028,
        "meta_ra_of_asc_node": 342.3795,
        "meta_arg_of_pericenter": 13.8872,
        "meta_mean_anomaly": 45.2023,
        "meta_ephemeris_type": 0,
        "meta_classification_type": "U",
        "meta_norad_cat_id": 30069,
        "meta_element_set_no": 999,
        "meta_rev_at_epoch": 97046,
        "meta_bstar": 0.00032974596,
        "meta_mean_motion_dot": 4.96e-06,
        "meta_mean_motion_ddot": 0,
        "tle_line1": "1 30069U 99025PW  25360.95013520  .00000496  00000+0  32975-3 0  9991",
        "tle_line2": "2 30069  98.8028 342.3795 0049418  13.8872  45.2023 14.05238678970469"
      },
      "geometry": {
        "type": "Point",
        "coordinates": [
          -22.15051879803935,
          28.3726312421698
        ]
      }
    },
    {
      "type": "Feature",
      "properties": {
        "norad_id": 30070,
        "name": "FENGYUN 1C DEB",
        "group": "fengyun-1c-debris",
        "lat": 65.12709234520896,
        "lon": 41.43375889695403,
        "alt_km": 1054.9211377760676,
        "timestamp": "2025-12-27T05:29:39.476532+00:00",
        "meta_object_name": "FENGYUN 1C DEB",
        "meta_object_id": "1999-025PX",
        "meta_epoch": "2025-12-26T03:54:00.184896",
        "meta_mean_motion": 14.10020808,
        "meta_eccentricity": 0.03279305,
        "meta_inclination": 98.2844,
        "meta_ra_of_asc_node": 58.7661,
        "meta_arg_of_pericenter": 280.2616,
        "meta_mean_anomaly": 134.0705,
        "meta_ephemeris_type": 0,
        "meta_classification_type": "U",
        "meta_norad_cat_id": 30070,
        "meta_element_set_no": 999,
        "meta_rev_at_epoch": 96068,
        "meta_bstar": 0.0015446796,
        "meta_mean_motion_dot": 4.457e-05,
        "meta_mean_motion_ddot": 0,
        "tle_line1": "1 30070U 99025PX  25360.16250214  .00004457  00000+0  15447-2 0  9994",
        "tle_line2": "2 30070  98.2844  58.7661 0327930 280.2616 134.0705 14.10020808960682"
      },
      "geometry": {
        "type": "Point",
        "coordinates": [
          41.43375889695403,
          65.12709234520896
        ]
      }
    },
    {
      "type": "Feature",
      "properties": {
        "norad_id": 30071,
        "name": "FENGYUN 1C DEB",
        "group": "fengyun-1c-debris",
        "lat": -30.422513006699322,
        "lon": 106.0753521795657,
        "alt_km": 726.6318486361179,
        "timestamp": "2025-12-27T05:29:39.476543+00:00",
        "meta_object_name": "FENGYUN 1C DEB",
        "meta_object_id": "1999-025PY",
        "meta_epoch": "2025-12-26T18:39:27.063648",
        "meta_mean_motion": 14.52394801,
        "meta_eccentricity": 0.00379821,
        "meta_inclination": 98.6574,
        "meta_ra_of_asc_node": 100.4767,
        "meta_arg_of_pericenter": 66.9902,
        "meta_mean_anomaly": 63.2124,
        "meta_ephemeris_type": 0,
        "meta_classification_type": "U",
        "meta_norad_cat_id": 30071,
        "meta_element_set_no": 999,
        "meta_rev_at_epoch": 98430,
        "meta_bstar": 0.0022795973,
        "meta_mean_motion_dot": 9.336e-05,
        "meta_mean_motion_ddot": 0,
        "tle_line1": "1 30071U 99025PY  25360.77739657  .00009336  00000+0  22796-2 0  9991",
        "tle_line2": "2 30071  98.6574 100.4767 0037982  66.9902  63.2124 14.52394801984307"
      },
      "geometry": {
        "type": "Point",
        "coordinates": [
          106.0753521795657,
          -30.422513006699322
        ]
      }
    },
    {
      "type": "Feature",
      "properties": {
        "norad_id": 30072,
        "name": "FENGYUN 1C DEB",
        "group": "fengyun-1c-debris",
        "lat": -79.79847343421157,
        "lon": -92.35041363366132,
        "alt_km": 736.6762001608859,
        "timestamp": "2025-12-27T05:29:39.476553+00:00",
        "meta_object_name": "FENGYUN 1C DEB",
        "meta_object_id": "1999-025PZ",
        "meta_epoch": "2025-12-26T21:35:02.328864",
        "meta_mean_motion": 14.38055327,
        "meta_eccentricity": 0.00601748,
        "meta_inclination": 99.0762,
        "meta_ra_of_asc_node": 149.9597,
        "meta_arg_of_pericenter": 231.8538,
        "meta_mean_anomaly": 127.7216,
        "meta_ephemeris_type": 0,
        "meta_classification_type": "U",
        "meta_norad_cat_id": 30072,
        "meta_element_set_no": 999,
        "meta_rev_at_epoch": 97374,
        "meta_bstar": 0.0042773312,
        "meta_mean_motion_dot": 0.00013203,
        "meta_mean_motion_ddot": 0,
        "tle_line1": "1 30072U 99025PZ  25360.89933251  .00013203  00000+0  42773-2 0  9996",
        "tle_line2": "2 30072  99.0762 149.9597 0060174 231.8538 127.7216 14.38055327973743"
      },
      "geometry": {
        "type": "Point",
        "coordinates": [
          -92.35041363366132,
          -79.79847343421157
        ]
      }
    }
  ]
}